STARLINK-36621          
1 67561U 26016A   26035.50002314 -.01632508  00000+0 -76486-2 0  9990
2 67561  97.2816  94.2108 0001710  82.5514 132.5201 15.85955353  2711
STARLINK-36398          
1 67562U 26016B   26035.50002314 -.01621059  00000+0 -74980-2 0  9997
2 67562  97.2814  94.2132 0001503  83.8516 136.6805 15.86200231  2694
STARLINK-36403          
1 67563U 26016C   26035.50002314 -.01620536  00000+0 -74153-2 0  9999
2 67563  97.2819  94.2153 0001502  92.7170 132.5394 15.86419066  2817
STARLINK-36593          
1 67564U 26016D   26035.50002314 -.01615643  00000+0 -72982-2 0  9991
2 67564  97.2818  94.2175 0001460  92.7474 138.0183 15.86673333  2659
STARLINK-35725          
1 67565U 26016E   26035.50002314 -.01609959  00000+0 -72037-2 0  9996
2 67565  97.2813  94.2187 0001417  84.4949 150.3898 15.86857123  2702
STARLINK-36394          
1 67566U 26016F   26035.50002314 -.01588934  00000+0 -68344-2 0  9992
2 67566  97.2804  94.2257 0001529  85.4850 166.8837 15.87616841  2815
STARLINK-36352          
1 67567U 26016G   26035.50002314 -.01595418  00000+0 -69486-2 0  9996
2 67567  97.2804  94.2233 0001380  90.3094 156.8942 15.87378002  2719
STARLINK-36435          
1 67568U 26016H   26035.50002314 -.01585440  00000+0 -67478-2 0  9990
2 67568  97.2803  94.2276 0001501  93.7136 163.2321 15.87823274  2714
STARLINK-36575          
1 67569U 26016J   26035.50002314 -.01594578  00000+0 -67079-2 0  9990
2 67569  97.2801  94.2307 0001408  91.7690 170.3322 15.88074631  2713
STARLINK-36562          
1 67570U 26016K   26035.50002314 -.01580079  00000+0 -65826-2 0  9991
2 67570  97.2795  94.2320 0001472  90.0204 175.9665 15.88243566  2712
STARLINK-36578          
1 67571U 26016L   26035.50002314 -.01575168  00000+0 -64944-2 0  9995
2 67571  97.2797  94.2336 0001388  96.0381 174.3459 15.88443369  2694
STARLINK-36350          
1 67572U 26016M   26035.50002314 -.01531903  00000+0 -63642-2 0  9999
2 67572  97.2798  94.2360 0001477  84.7733 191.0284 15.88693449  2606
